1 47273U 20100R   22040.76056070 -.00000458  00000-0 -13098-2 0  9997
2 47273  87.8871 306.3328 0001710  80.1486 279.9836 13.12442745 56373
1 47273U 20100R   22041.44669618 -.00000435  00000-0 -12444-2 0  9990
2 47273  87.8870 306.1961 0001707  80.2033 279.9288 13.12441625 56465
1 47273U 20100R   22041.75164482 -.00000423  00000-0 -12116-2 0  9996
2 47273  87.8870 306.1352 0001694  80.1237 280.0083 13.12442087 56503
1 47273U 20100R   22042.13283087 -.00000280  00000-0 -81240-3 0  9998
2 47273  87.8870 306.0592 0001695  80.1957 279.9363 13.12442010 56557
1 47273U 20100R   22042.43778008 -.00000204  00000-0 -60125-3 0  9998
2 47273  87.8870 305.9984 0001696  80.1089 280.0231 13.12441802 56596
1 47273U 20100R   22042.74273051 -.00000350  00000-0 -10081-2 0  9997
2 47273  87.8869 305.9376 0001700  80.1625 279.9695 13.12440902 56637
1 47273U 20100R   22043.42886570 -.00000091  00000-0 -28963-3 0  9990
2 47273  87.8868 305.8008 0001703  80.0916 280.0405 13.12441550 56724
1 47273U 20100R   22043.42886570 -.00000091  00000-0 -28963-3 0  9990
2 47273  87.8868 305.8008 0001703  80.0916 280.0405 13.12441550 56724
1 47273U 20100R   22043.73381574 -.00000088  00000-0 -27956-3 0  9995
2 47273  87.8868 305.7400 0001699  80.1889 279.9431 13.12440930 56764
1 47273U 20100R   22044.41995144  .00000155  00000-0  39468-3 0  9999
2 47273  87.8867 305.6032 0001713  80.1903 279.9419 13.12441449 56859
1 47273U 20100R   22044.72490105  .00000119  00000-0  29625-3 0  9994
2 47273  87.8867 305.5424 0001717  80.2958 279.8364 13.12441606 56895
1 47273U 20100R   22045.41103720  .00000270  00000-0  71414-3 0  9996
2 47273  87.8866 305.4055 0001714  80.0875 280.0447 13.12441757 56989
1 47273U 20100R   22045.79222384  .00000337  00000-0  90021-3 0  9994
2 47273  87.8867 305.3295 0001708  80.1989 279.9333 13.12441817 57030
1 47273U 20100R   22045.79222384  .00000337  00000-0  90021-3 0  9994
2 47273  87.8867 305.3295 0001708  80.1989 279.9333 13.12441817 57030
1 47273U 20100R   22046.47835940  .00000388  00000-0  10423-2 0  9991
2 47273  87.8865 305.1926 0001723  80.3802 279.7521 13.12442415 57122
1 47273U 20100R   22046.78330855  .00000407  00000-0  10949-2 0  9995
2 47273  87.8865 305.1318 0001720  80.3277 279.8046 13.12442319 57160
1 47273U 20100R   22047.16449512  .00000487  00000-0  13181-2 0  9998
2 47273  87.8864 305.0558 0001728  80.4763 279.6561 13.12441882 57213
1 47273U 20100R   22047.31813301 -.00156624  00000-0 -45048+0 0  9997
2 47273  87.8866 305.0257 0009324   9.6785 350.4520 13.11251005 57238
1 47273U 20100R   22047.31813301 -.00156624  00000-0 -45048+0 0  9997
2 47273  87.8866 305.0257 0009324   9.6785 350.4520 13.11251005 57238
1 47273U 20100R   22048.46052625  .00000430  00000-0  11590-2 0  9997
2 47273  87.8863 304.7972 0001734  80.5158 279.6167 13.12443360 57387
1 47273U 20100R   22048.61300007  .00000441  00000-0  11893-2 0  9992
2 47273  87.8863 304.7668 0001730  80.2535 279.8789 13.12443874 57406
1 47273U 20100R   22048.76547427  .00000414  00000-0  11152-2 0  9995
2 47273  87.8862 304.7364 0001728  80.2658 279.8665 13.12443851 57421
1 47273U 20100R   22049.45160785  .00000303  00000-0  80693-3 0  9994
2 47273  87.8861 304.5995 0001722  80.3332 279.7991 13.12444001 57511
1 47273U 20100R   22049.75655553  .00000320  00000-0  85305-3 0  9993
2 47273  87.8861 304.5386 0001718  80.0058 280.1265 13.12444403 57552
1 47273U 20100R   22049.75655553  .00000320  00000-0  85305-3 0  9993
2 47273  87.8861 304.5386 0001718  80.0058 280.1265 13.12444403 57552
1 47273U 20100R   22050.44268898  .00000080  00000-0  18797-3 0  9997
2 47273  87.8860 304.4018 0001712  80.6780 279.4542 13.12444081 57645
1 47273U 20100R   22050.74763763 -.00000293  00000-0 -85032-3 0  9995
2 47273  87.8870 304.3413 0001712  85.4857 274.6467 13.12444133 57687
1 47273U 20100R   22051.12882489  .00000498  00000-0  13494-2 0  9992
2 47273  87.8883 304.2648 0001612  75.0577 285.0730 13.12438814 57737
1 47273U 20100R   22051.43377289  .00001656  00000-0  45682-2 0  9994
2 47273  87.8897 304.2041 0002081  79.1284 281.0078 13.12435436 57772
1 47273U 20100R   22051.73871706  .00000676  00000-0  18445-2 0  9998
2 47273  87.8901 304.1437 0001482  81.2834 278.8462 13.12440763 57810
1 47273U 20100R   22052.42485544  .00002832  00000-0  78350-2 0  9993
2 47273  87.8905 304.0074 0001912  78.8789 281.2555 13.12428539 57907
1 47273U 20100R   22052.72979822 -.00000187  00000-0 -55528-3 0  9999
2 47273  87.8906 303.9467 0001705  80.8363 279.2958 13.12444011 57944
1 47273U 20100R   22052.95851028 -.00000327  00000-0 -94308-3 0  9996
2 47273  87.8906 303.9012 0001701  80.6164 279.5157 13.12443092 57978
1 47273U 20100R   22053.41593204 -.00000326  00000-0 -94081-3 0  9994
2 47273  87.8908 303.8100 0001711  80.6159 279.5163 13.12443531 58035
1 47273U 20100R   22053.72088058 -.00000431  00000-0 -12346-2 0  9994
2 47273  87.8908 303.7493 0001714  80.5651 279.5671 13.12443526 58070
1 47273U 20100R   22054.10206583 -.00000347  00000-0 -10001-2 0  9994
2 47273  87.8907 303.6734 0001709  80.5329 279.5993 13.12443437 58126
1 47273U 20100R   22054.40701465 -.00000401  00000-0 -11494-2 0  9994
2 47273  87.8906 303.6127 0001709  80.4741 279.6581 13.12443038 58163
1 47273U 20100R   22054.71196341 -.00000416  00000-0 -11910-2 0  9998
2 47273  87.8906 303.5520 0001706  80.5584 279.5738 13.12442890 58205
1 47273U 20100R   22055.39809834 -.00000373  00000-0 -10722-2 0  9993
2 47273  87.8904 303.4154 0001712  80.4330 279.6991 13.12442519 58299
1 47273U 20100R   22055.70304719 -.00000339  00000-0 -97648-3 0  9995
2 47273  87.8903 303.3547 0001709  80.5551 279.5771 13.12442515 58331
1 47273U 20100R   22055.70304719 -.00000339  00000-0 -97648-3 0  9995
2 47273  87.8903 303.3547 0001709  80.5551 279.5771 13.12442515 58331
1 47273U 20100R   22056.38918245 -.00000215  00000-0 -63279-3 0  9991
2 47273  87.8902 303.2181 0001708  80.5421 279.5900 13.12442470 58422
1 47273U 20100R   22056.69413161 -.00000177  00000-0 -52737-3 0  9996
2 47273  87.8901 303.1574 0001710  80.5647 279.5675 13.12442514 58461
1 47273U 20100R   22057.15155605 -.00000119  00000-0 -36512-3 0  9993
2 47273  87.8901 303.0663 0001713  80.5849 279.5473 13.12441747 58526
1 47273U 20100R   22057.22779322 -.00000085  00000-0 -27097-3 0  9999
2 47273  87.8901 303.0511 0001713  80.5269 279.6053 13.12441896 58535
1 47273U 20100R   22057.91392824  .00000071  00000-0  16283-3 0  9991
2 47273  87.8901 302.9145 0001714  80.2155 279.9167 13.12442897 58629
1 47273U 20100R   22058.37135261  .00000215  00000-0  56236-3 0  9994
2 47273  87.8900 302.8234 0001713  80.1897 279.9425 13.12442335 58687
1 47273U 20100R   22058.37135261  .00000215  00000-0  56236-3 0  9994
2 47273  87.8900 302.8234 0001713  80.1897 279.9425 13.12442335 58687
1 47273U 20100R   22058.90501338  .00000248  00000-0  65447-3 0  9995
2 47273  87.8900 302.7171 0001710  80.4411 279.6911 13.12442987 58756
1 47273U 20100R   22059.59114936  .00000360  00000-0  96569-3 0  9999
2 47273  87.8898 302.5804 0001701  80.4743 279.6578 13.12442587 58846
1 47273U 20100R   22059.74362339  .00000376  00000-0  10092-2 0  9991
2 47273  87.8898 302.5500 0001703  80.4186 279.7135 13.12443285 58860
1 47273U 20100R   22059.74362339  .00000376  00000-0  10092-2 0  9991
2 47273  87.8898 302.5500 0001703  80.4186 279.7135 13.12443285 58860
1 47273U 20100R   22060.20104735  .00000474  00000-0  12814-2 0  9991
2 47273  87.8897 302.4589 0001706  80.5103 279.6218 13.12442384 58925
1 47273U 20100R   22060.73470688  .00000532  00000-0  14428-2 0  9990
2 47273  87.8896 302.3525 0001704  80.5398 279.5923 13.12443599 58995
1 47273U 20100R   22061.11589266  .00000467  00000-0  12619-2 0  9993
2 47273  87.8895 302.2766 0001692  80.5727 279.5593 13.12443893 59049
1 47273U 20100R   22061.57331564  .00000399  00000-0  10734-2 0  9999
2 47273  87.8894 302.1855 0001688  80.3283 279.8036 13.12443871 59104
1 47273U 20100R   22061.72578955  .00000454  00000-0  12254-2 0  9994
2 47273  87.8894 302.1552 0001696  80.2302 279.9018 13.12444117 59125
1 47273U 20100R   22062.18321205  .00000431  00000-0  11617-2 0  9996
2 47273  87.8893 302.0641 0001705  80.3194 279.8127 13.12443982 59188
1 47273U 20100R   22062.18321205  .00000431  00000-0  11617-2 0  9996
2 47273  87.8893 302.0641 0001705  80.3194 279.8127 13.12443982 59188
1 47273U 20100R   22062.71687094  .00000331  00000-0  88373-3 0  9999
2 47273  87.8892 301.9578 0001701  80.2938 279.8382 13.12444725 59252
1 47273U 20100R   22063.40300455  .00000150  00000-0  38211-3 0  9994
2 47273  87.8890 301.8211 0001701  80.8891 279.2430 13.12443940 59343
1 47273U 20100R   22063.40300455  .00000150  00000-0  38211-3 0  9994
2 47273  87.8890 301.8211 0001701  80.8891 279.2430 13.12443940 59343
1 47273U 20100R   22063.70795101  .00000198  00000-0  51492-3 0  9991
2 47273  87.8889 301.7603 0001705  80.7804 279.3518 13.12445560 59384
1 47273U 20100R   22064.16537300  .00000152  00000-0  38645-3 0  9992
2 47273  87.8888 301.6691 0001711  81.1739 278.9583 13.12444850 59443
1 47273U 20100R   22064.39408396  .00000026  00000-0  35640-4 0  9992
2 47273  87.8887 301.6235 0001706  81.2524 278.8798 13.12444848 59470
1 47273U 20100R   22064.69903128  .00000049  00000-0  10156-3 0  9997
2 47273  87.8887 301.5627 0001708  81.2454 278.8868 13.12445208 59512
1 47273U 20100R   22064.92774253 -.00000056  00000-0 -19039-3 0  9997
2 47273  87.8887 301.5172 0001723  80.9273 279.2050 13.12444807 59544
1 47273U 20100R   22065.61387471 -.00000157  00000-0 -47068-3 0  9991
2 47273  87.8885 301.3805 0001719  81.2076 278.9248 13.12444967 59635
1 47273U 20100R   22065.69011123 -.00000257  00000-0 -75020-3 0  9997
2 47273  87.8885 301.3652 0001718  81.1268 279.0055 13.12445872 59641
1 47273U 20100R   22066.14753340 -.00000245  00000-0 -71705-3 0  9995
2 47273  87.8884 301.2741 0001716  81.2526 278.8797 13.12444705 59705
1 47273U 20100R   22066.37624447 -.00000280  00000-0 -81429-3 0  9998
2 47273  87.8884 301.2285 0001712  81.2839 278.8483 13.12444454 59737
